start=new Date('2021-12-27T00:00:00.000Z').valueOf();
sats=[{"LAUNCH_DATE":"2021-11-13","PERIOD":"91.529","ARG_OF_PERICENTER":"26.9808","DECAY_DATE":null,"OBJECT_ID":"2021-104AZ","ECCENTRICITY":"0.00020740","MEAN_ELEMENT_THEORY":"SGP4","TLE_LINE1":"1 49455U 21104AZ  21360.91667824 -.00109558  00000-0 -78383-3 0  9992","FILE":"3251714","CLASSIFICATION_TYPE":"U","TIME_SYSTEM":"UTC","COUNTRY_CODE":"US","REV_AT_EPOCH":"810","ELEMENT_SET_NO":"999","EPHEMERIS_TYPE":"0","EPOCH":"2021-12-26T22:00:00.999936","MEAN_MOTION_DDOT":"0.0000000000000","INCLINATION":"53.2168","RCS_SIZE":"LARGE","MEAN_ANOMALY":"264.6410","APOAPSIS":"350.948","SITE":"AFETR","PERIAPSIS":"348.157","MEAN_MOTION":"15.73272842","OBJECT_NAME":"STARLINK-3145","CENTER_NAME":"EARTH","BSTAR":"-0.00078383000000","REF_FRAME":"TEME","NORAD_CAT_ID":"49455","RA_OF_ASC_NODE":"278.2836","GP_ID":"192500967","SEMIMAJOR_AXIS":"6727.688","TLE_LINE2":"2 49455  53.2168 278.2836 0002074  26.9808 264.6410 15.73272842  8109","MEAN_MOTION_DOT":"-0.00109558","OBJECT_TYPE":"PAYLOAD"},{"MEAN_MOTION":"15.73259647","OBJECT_NAME":"STARLINK-3124","PERIAPSIS":"348.154","REF_FRAME":"TEME","CENTER_NAME":"EARTH","BSTAR":"-0.00060277000000","GP_ID":"192527721","RA_OF_ASC_NODE":"278.2841","NORAD_CAT_ID":"49456","MEAN_MOTION_DOT":"-0.00084595","OBJECT_TYPE":"PAYLOAD","TLE_LINE2":"2 49456  53.2162 278.2841 0002135  22.8847 266.8706 15.73259647  3695","SEMIMAJOR_AXIS":"6727.725","PERIOD":"91.530","LAUNCH_DATE":"2021-11-13","OBJECT_ID":"2021-104BA","ECCENTRICITY":"0.00021350","ARG_OF_PERICENTER":"22.8847","DECAY_DATE":null,"ELEMENT_SET_NO":"999","EPHEMERIS_TYPE":"0","EPOCH":"2021-12-26T22:00:00.999936","REV_AT_EPOCH":"369","COUNTRY_CODE":"US","TLE_LINE1":"1 49456U 21104BA  21360.91667824 -.00084595  00000-0 -60277-3 0  9999","MEAN_ELEMENT_THEORY":"SGP4","FILE":"3251846","CLASSIFICATION_TYPE":"U","TIME_SYSTEM":"UTC","APOAPSIS":"351.026","SITE":"AFETR","MEAN_ANOMALY":"266.8706","MEAN_MOTION_DDOT":"0.0000000000000","RCS_SIZE":"LARGE","INCLINATION":"53.2162"},{"BSTAR":"-0.00040326000000","CENTER_NAME":"EARTH","REF_FRAME":"TEME","PERIAPSIS":"348.211","MEAN_MOTION":"15.73224806","OBJECT_NAME":"STARLINK-3132","SEMIMAJOR_AXIS":"6727.824","TLE_LINE2":"2 49457  53.2173 278.2855 0002197  31.5821 261.0505 15.73224806  3693","MEAN_MOTION_DOT":"-0.00056901","OBJECT_TYPE":"PAYLOAD","NORAD_CAT_ID":"49457","RA_OF_ASC_NODE":"278.2855","GP_ID":"192526545","ARG_OF_PERICENTER":"31.5821","DECAY_DATE":null,"OBJECT_ID":"2021-104BB","ECCENTRICITY":"0.00021970","LAUNCH_DATE":"2021-11-13","PERIOD":"91.532","MEAN_MOTION_DDOT":"0.0000000000000","INCLINATION":"53.2173","RCS_SIZE":"LARGE","MEAN_ANOMALY":"261.0505","APOAPSIS":"351.168","SITE":"AFETR","TLE_LINE1":"1 49457U 21104BB  21360.91667824 -.00056901  00000-0 -40326-3 0  9993","FILE":"3251846","CLASSIFICATION_TYPE":"U","MEAN_ELEMENT_THEORY":"SGP4","TIME_SYSTEM":"UTC","COUNTRY_CODE":"US","REV_AT_EPOCH":"369","ELEMENT_SET_NO":"999","EPOCH":"2021-12-26T22:00:00.999936","EPHEMERIS_TYPE":"0"},{"NORAD_CAT_ID":"49458","GP_ID":"192526307","RA_OF_ASC_NODE":"278.2876","SEMIMAJOR_AXIS":"6727.881","OBJECT_TYPE":"PAYLOAD","MEAN_MOTION_DOT":"0.00002444","TLE_LINE2":"2 49458  53.2171 278.2876 0002233  30.3792 260.2850 15.73205051  3695","MEAN_MOTION":"15.73205051","OBJECT_NAME":"STARLINK-3156","PERIAPSIS":"348.243","BSTAR":"0.00002183200000","CENTER_NAME":"EARTH","REF_FRAME":"TEME","COUNTRY_CODE":"US","TIME_SYSTEM":"UTC","MEAN_ELEMENT_THEORY":"SGP4","TLE_LINE1":"1 49458U 21104BC  21360.91667824  .00002444  00000-0  21832-4 0  9997","FILE":"3251846","CLASSIFICATION_TYPE":"U","EPOCH":"2021-12-26T22:00:00.999936","EPHEMERIS_TYPE":"0","ELEMENT_SET_NO":"999","REV_AT_EPOCH":"369","INCLINATION":"53.2171","RCS_SIZE":"LARGE","MEAN_MOTION_DDOT":"0.0000000000000","SITE":"AFETR","APOAPSIS":"351.248","MEAN_ANOMALY":"260.2850","LAUNCH_DATE":"2021-11-13","PERIOD":"91.533","DECAY_DATE":null,"ARG_OF_PERICENTER":"30.3792","OBJECT_ID":"2021-104BC","ECCENTRICITY":"0.00022330"},{"LAUNCH_DATE":"2021-11-13","PERIOD":"91.529","DECAY_DATE":null,"ARG_OF_PERICENTER":"27.6959","OBJECT_ID":"2021-104BD","ECCENTRICITY":"0.00021290","COUNTRY_CODE":"US","TIME_SYSTEM":"UTC","CLASSIFICATION_TYPE":"U","TLE_LINE1":"1 49459U 21104BD  21360.91667824 -.00103323  00000-0 -73844-3 0  9997","FILE":"3251846","MEAN_ELEMENT_THEORY":"SGP4","EPHEMERIS_TYPE":"0","EPOCH":"2021-12-26T22:00:00.999936","ELEMENT_SET_NO":"999","REV_AT_EPOCH":"369","INCLINATION":"53.2168","RCS_SIZE":"LARGE","MEAN_MOTION_DDOT":"0.0000000000000","SITE":"AFETR","APOAPSIS":"350.987","MEAN_ANOMALY":"265.8034","OBJECT_NAME":"STARLINK-3141","MEAN_MOTION":"15.73272086","PERIAPSIS":"348.122","BSTAR":"-0.00073844000000","CENTER_NAME":"EARTH","REF_FRAME":"TEME","NORAD_CAT_ID":"49459","GP_ID":"192527487","RA_OF_ASC_NODE":"278.2803","SEMIMAJOR_AXIS":"6727.690","OBJECT_TYPE":"PAYLOAD","MEAN_MOTION_DOT":"-0.00103323","TLE_LINE2":"2 49459  53.2168 278.2803 0002129  27.6959 265.8034 15.73272086  3697"},{"ECCENTRICITY":"0.00023470","OBJECT_ID":"2021-104BE","DECAY_DATE":null,"ARG_OF_PERICENTER":"28.4895","PERIOD":"91.530","LAUNCH_DATE":"2021-11-13","MEAN_ANOMALY":"265.9387","SITE":"AFETR","APOAPSIS":"351.177","INCLINATION":"53.2165","RCS_SIZE":"LARGE","MEAN_MOTION_DDOT":"0.0000000000000","REV_AT_EPOCH":"369","EPOCH":"2021-12-26T22:00:00.999936","EPHEMERIS_TYPE":"0","ELEMENT_SET_NO":"999","TIME_SYSTEM":"UTC","FILE":"3251846","TLE_LINE1":"1 49460U 21104BE  21360.91667824 -.00056811  00000-0 -40204-3 0  9992","MEAN_ELEMENT_THEORY":"SGP4","CLASSIFICATION_TYPE":"U","COUNTRY_CODE":"US","REF_FRAME":"TEME","BSTAR":"-0.00040204000000","CENTER_NAME":"EARTH","PERIAPSIS":"348.019","OBJECT_NAME":"STARLINK-3140","MEAN_MOTION":"15.73257050","TLE_LINE2":"2 49460  53.2165 278.2755 0002347  28.4895 265.9387 15.73257050  3698","OBJECT_TYPE":"PAYLOAD","MEAN_MOTION_DOT":"-0.00056811","SEMIMAJOR_AXIS":"6727.733","RA_OF_ASC_NODE":"278.2755","GP_ID":"192527251","NORAD_CAT_ID":"49460"},{"ARG_OF_PERICENTER":"43.7302","DECAY_DATE":null,"OBJECT_ID":"2021-115A","ECCENTRICITY":"0.00020640","LAUNCH_DATE":"2021-12-02","PERIOD":"93.478","MEAN_MOTION_DDOT":"0.0000000000000","INCLINATION":"53.2160","RCS_SIZE":"LARGE","APOAPSIS":"446.152","SITE":"AFETR","MEAN_ANOMALY":"116.3126","COUNTRY_CODE":"US","FILE":"3251846","TLE_LINE1":"1 49724U 21115A   21360.91667824  .00003809  00000-0  10238-3 0  9998","MEAN_ELEMENT_THEORY":"SGP4","CLASSIFICATION_TYPE":"U","TIME_SYSTEM":"UTC","ELEMENT_SET_NO":"999","EPOCH":"2021-12-26T22:00:00.999936","EPHEMERIS_TYPE":"0","REV_AT_EPOCH":"363","BSTAR":"0.00010238000000","CENTER_NAME":"EARTH","REF_FRAME":"TEME","OBJECT_NAME":"STARLINK-3219","MEAN_MOTION":"15.40463028","PERIAPSIS":"443.336","SEMIMAJOR_AXIS":"6822.879","MEAN_MOTION_DOT":"0.00003809","OBJECT_TYPE":"PAYLOAD","TLE_LINE2":"2 49724  53.2160 204.2896 0002064  43.7302 116.3126 15.40463028  3632","NORAD_CAT_ID":"49724","GP_ID":"192527751","RA_OF_ASC_NODE":"204.2896"},{"SEMIMAJOR_AXIS":"6822.855","TLE_LINE2":"2 49725  53.2158 204.2931 0001731  44.1519 113.7886 15.40471146  3639","MEAN_MOTION_DOT":"-0.00012228","OBJECT_TYPE":"PAYLOAD","NORAD_CAT_ID":"49725","RA_OF_ASC_NODE":"204.2931","GP_ID":"192526575","BSTAR":"-0.00028790000000","CENTER_NAME":"EARTH","REF_FRAME":"TEME","PERIAPSIS":"443.539","OBJECT_NAME":"STARLINK-3218","MEAN_MOTION":"15.40471146","MEAN_MOTION_DDOT":"0.0000000000000","RCS_SIZE":"LARGE","INCLINATION":"53.2158","MEAN_ANOMALY":"113.7886","APOAPSIS":"445.901","SITE":"AFETR","TLE_LINE1":"1 49725U 21115B   21360.91667824 -.00012228  00000-0 -28790-3 0  9998","FILE":"3251846","CLASSIFICATION_TYPE":"U","MEAN_ELEMENT_THEORY":"SGP4","TIME_SYSTEM":"UTC","COUNTRY_CODE":"US","REV_AT_EPOCH":"363","ELEMENT_SET_NO":"999","EPHEMERIS_TYPE":"0","EPOCH":"2021-12-26T22:00:00.999936","ARG_OF_PERICENTER":"44.1519","DECAY_DATE":null,"ECCENTRICITY":"0.00017310","OBJECT_ID":"2021-115B","LAUNCH_DATE":"2021-12-02","PERIOD":"93.478"},{"FILE":"3251846","TLE_LINE1":"1 49726U 21115C   21360.91667824 -.00659578  00000-0 -29354-1 0  9999","CLASSIFICATION_TYPE":"U","MEAN_ELEMENT_THEORY":"SGP4","TIME_SYSTEM":"UTC","COUNTRY_CODE":"US","REV_AT_EPOCH":"363","ELEMENT_SET_NO":"999","EPOCH":"2021-12-26T22:00:00.999936","EPHEMERIS_TYPE":"0","MEAN_MOTION_DDOT":"0.0000000000000","RCS_SIZE":"LARGE","INCLINATION":"53.2175","MEAN_ANOMALY":"113.2948","APOAPSIS":"496.456","SITE":"AFETR","LAUNCH_DATE":"2021-12-02","PERIOD":"94.515","ARG_OF_PERICENTER":"37.8788","DECAY_DATE":null,"ECCENTRICITY":"0.00019720","OBJECT_ID":"2021-115C","NORAD_CAT_ID":"49726","RA_OF_ASC_NODE":"205.0215","GP_ID":"192526337","SEMIMAJOR_AXIS":"6873.236","TLE_LINE2":"2 49726  53.2175 205.0215 0001972  37.8788 113.2948 15.23564770  3638","MEAN_MOTION_DOT":"-0.00659578","OBJECT_TYPE":"PAYLOAD","PERIAPSIS":"493.745","MEAN_MOTION":"15.23564770","OBJECT_NAME":"STARLINK-3237","BSTAR":"-0.02935400000000","CENTER_NAME":"EARTH","REF_FRAME":"TEME"},{"NORAD_CAT_ID":"49727","RA_OF_ASC_NODE":"205.0230","GP_ID":"192527517","SEMIMAJOR_AXIS":"6873.897","TLE_LINE2":"2 49727  53.2175 205.0230 0001933  37.9032 101.5430 15.23344967  3636","OBJECT_TYPE":"PAYLOAD","MEAN_MOTION_DOT":"-0.00660103","PERIAPSIS":"494.433","MEAN_MOTION":"15.23344967","OBJECT_NAME":"STARLINK-3242","BSTAR":"-0.02957300000000","CENTER_NAME":"EARTH","REF_FRAME":"TEME","TIME_SYSTEM":"UTC","TLE_LINE1":"1 49727U 21115D   21360.91667824 -.00660103  00000-0 -29573-1 0  9999","FILE":"3251846","MEAN_ELEMENT_THEORY":"SGP4","CLASSIFICATION_TYPE":"U","COUNTRY_CODE":"US","REV_AT_EPOCH":"363","EPOCH":"2021-12-26T22:00:00.999936","EPHEMERIS_TYPE":"0","ELEMENT_SET_NO":"999","INCLINATION":"53.2175","RCS_SIZE":"LARGE","MEAN_MOTION_DDOT":"0.0000000000000","MEAN_ANOMALY":"101.5430","SITE":"AFETR","APOAPSIS":"497.090","LAUNCH_DATE":"2021-12-02","PERIOD":"94.529","DECAY_DATE":null,"ARG_OF_PERICENTER":"37.9032","OBJECT_ID":"2021-115D","ECCENTRICITY":"0.00019330"}];
